H1 CPF 01  gfz 2021 09 06 12  7492 tandemx   
H2 1003001  6202 36605    2021 09 06 12 59 42 2021 09 11 00 00 42   120 1 1  0 0 0
H9
10 0 59465  23022.000000  0    -803127.056    966762.330   6761962.443
10 0 59465  23142.000000  0     111860.518    885109.170   6819554.705
10 0 59465  23262.000000  0    1023193.396    772031.493   6757323.402
10 0 59465  23382.000000  0    1914440.537    629708.500   6576354.531
10 0 59465  23502.000000  0    2769560.089    461113.047   6279807.171
10 0 59465  23622.000000  0    3573188.729    269951.835   5872862.824
10 0 59465  23742.000000  0    4310920.525     60587.633   5362640.007
10 0 59465  23862.000000  0    4969569.634   -162054.993   4758075.657
10 0 59465  23982.000000  0    5537412.825   -392598.858   4069774.274
10 0 59465  24102.000000  0    6004407.565   -625335.884   3309826.496
10 0 59465  24222.000000  0    6362380.630   -854358.942   2491598.154
10 0 59465  24342.000000  0    6605180.788  -1073700.646   1629492.580
10 0 59465  24462.000000  0    6728791.253  -1277475.901    738692.881
10 0 59465  24582.000000  0    6731402.525  -1460025.346   -165111.529
10 0 59465  24702.000000  0    6613439.726  -1616055.484  -1066011.335
10 0 59465  24822.000000  0    6377543.518  -1740770.863  -1948166.037
10 0 59465  24942.000000  0    6028507.085  -1829996.104  -2796090.730
10 0 59465  25062.000000  0    5573169.924  -1880284.224  -3594932.986
10 0 59465  25182.000000  0    5020273.296  -1889008.700  -4330734.538
10 0 59465  25302.000000  0    4380281.657  -1854437.192  -4990673.536
10 0 59465  25422.000000  0    3665173.689  -1775786.246  -5563283.125
10 0 59465  25542.000000  0    2888208.491  -1653255.540  -6038641.594
10 0 59465  25662.000000  0    2063674.776  -1488040.802  -6408532.975
10 0 59465  25782.000000  0    1206626.361  -1282325.757  -6666579.019
10 0 59465  25902.000000  0     332607.958  -1039254.113  -6808338.146
10 0 59465  26022.000000  0    -542622.439   -762882.010  -6831373.431
10 0 59465  26142.000000  0   -1403371.057   -458111.428  -6735289.564
10 0 59465  26262.000000  0   -2234283.513   -130605.132  -6521738.972
10 0 59465  26382.000000  0   -3020612.323    213315.522  -6194395.326
10 0 59465  26502.000000  0   -3748473.035    566788.192  -5758897.540
10 0 59465  26622.000000  0   -4405088.664    922541.701  -5222763.260
10 0 59465  26742.000000  0   -4979016.302   1273039.955  -4595270.543
10 0 59465  26862.000000  0   -5460353.794   1610637.286  -3887309.647
10 0 59465  26982.000000  0   -5840919.693   1927741.045  -3111202.952
10 0 59465  27102.000000  0   -6114403.490   2216977.068  -2280497.594
10 0 59465  27222.000000  0   -6276482.335   2471355.549  -1409732.542
10 0 59465  27342.000000  0   -6324900.396   2684433.344   -514183.510
10 0 59465  27462.000000  0   -6259508.045   2850467.829    390409.836
10 0 59465  27582.000000  0   -6082257.790   2964558.266   1288128.394
10 0 59465  27702.000000  0   -5797157.353   3022771.513   2163162.540
10 0 59465  27822.000000  0   -5410180.953   3022247.695   3000099.451
10 0 59465  27942.000000  0   -4929142.287   2961283.896   3784202.374
10 0 59465  28062.000000  0   -4363530.628   2839392.642   4501676.272
10 0 59465  28182.000000  0   -3724315.989   2657334.893   5139912.334
10 0 59465  28302.000000  0   -3023729.332   2417127.525   5687708.979
10 0 59465  28422.000000  0   -2275021.116   2122024.969   6135466.406
10 0 59465  28542.000000  0   -1492204.019   1776474.793   6475349.878
10 0 59465  28662.000000  0    -689785.872   1386048.991   6701419.999
10 0 59465  28782.000000  0     117500.099    957352.274   6809729.438
10 0 59465  28902.000000  0     914965.180    497909.433   6798387.537
10 0 59465  29022.000000  0    1688231.358     16033.524   6667591.007
10 0 59465  29142.000000  0    2423489.368   -479323.701   6419621.291
10 0 59465  29262.000000  0    3107745.193   -978737.513   6058808.279
10 0 59465  29382.000000  0    3729052.083  -1472488.256   5591459.906
10 0 59465  29502.000000  0    4276723.214  -1950750.303   5025757.187
10 0 59465  29622.000000  0    4741520.209  -2403787.346   4371616.764
10 0 59465  29742.000000  0    5115816.580  -2822151.390   3640523.088
10 0 59465  29862.000000  0    5393731.580  -3196881.220   2845328.915
10 0 59465  29982.000000  0    5571228.829  -3519694.485   2000027.814
10 0 59465  30102.000000  0    5646178.348  -3783170.062   1119505.268
10 0 59465  30222.000000  0    5618381.162  -3980916.009    219270.314
10 0 59465  30342.000000  0    5489554.555  -4107717.411   -684825.184
10 0 59465  30462.000000  0    5263278.637  -4159661.780  -1576875.204
10 0 59465  30582.000000  0    4944904.973  -4134236.912  -2441208.086
10 0 59465  30702.000000  0    4541429.957  -4030400.273  -3262668.377
10 0 59465  30822.000000  0    4061337.323  -3848618.291  -4026886.405
10 0 59465  30942.000000  0    3514413.516  -3590874.662  -4720529.490
10 0 59465  31062.000000  0    2911541.901  -3260648.388  -5331530.777
10 0 59465  31182.000000  0    2264480.728  -2862862.584  -5849290.967
10 0 59465  31302.000000  0    1585631.481  -2403807.376  -6264851.354
10 0 59465  31422.000000  0     887800.821  -1891037.292  -6571039.561
10 0 59465  31542.000000  0     183959.686  -1333243.462  -6762582.856
10 0 59465  31662.000000  0    -512994.226   -740105.932  -6836188.495
10 0 59465  31782.000000  0   -1190466.951   -122128.147  -6790593.219
10 0 59465  31902.000000  0   -1836390.552    509544.720  -6626582.248
10 0 59465  32022.000000  0   -2439433.022   1143321.482  -6346976.640
10 0 59465  32142.000000  0   -2989192.711   1767372.192  -5956590.132
10 0 59465  32262.000000  0   -3476376.026   2369843.906  -5462155.794
10 0 59465  32382.000000  0   -3892956.824   2939083.307  -4872222.054
10 0 59465  32502.000000  0   -4232313.841   3463861.723  -4197015.697
10 0 59465  32622.000000  0   -4489341.319   3933597.675  -3448274.062
10 0 59465  32742.000000  0   -4660531.611   4338573.355  -2639049.897
10 0 59465  32862.000000  0   -4744028.566   4670139.492  -1783488.807
10 0 59465  32982.000000  0   -4739648.751   4920903.766   -896583.905
10 0 59465  33102.000000  0   -4648870.334   5084898.461      6089.728
10 0 59465  33222.000000  0   -4474786.149   5157721.388    908655.160
10 0 59465  33342.000000  0   -4222025.765   5136646.379   1795220.992
10 0 59465  33462.000000  0   -3896644.525   5020699.323   2650171.896
10 0 59465  33582.000000  0   -3505983.316   4810697.955   3458451.998
10 0 59465  33702.000000  0   -3058504.085   4509255.761   4205835.769
10 0 59465  33822.000000  0   -2563605.930   4120750.179   4879182.286
10 0 59465  33942.000000  0   -2031424.965   3651254.982   5466667.637
10 0 59465  34062.000000  0   -1472623.668   3108438.910   5957990.723
10 0 59465  34182.000000  0    -898174.397   2501433.690   6344549.230
10 0 59465  34302.000000  0    -319142.844   1840674.444   6619583.061
10 0 59465  34422.000000  0     253524.352   1137717.469   6778286.842
10 0 59465  34542.000000  0     809206.439    405035.845   6817888.808
10 0 59465  34662.000000  0    1337804.493   -344201.404   6737695.626
10 0 59465  34782.000000  0    1829924.081  -1096365.260   6539104.813
10 0 59465  34902.000000  0    2277042.082  -1837614.048   6225581.973
10 0 59465  35022.000000  0    2671655.397  -2554147.922   5802605.278
10 0 59465  35142.000000  0    3007409.423  -3232467.272   5277575.060
10 0 59465  35262.000000  0    3279202.744  -3859629.814   4659690.045
10 0 59465  35382.000000  0    3483267.518  -4423501.959   3959791.926
10 0 59465  35502.000000  0    3617223.454  -4913000.013   3190178.229
10 0 59465  35622.000000  0    3680103.045  -5318314.401   2364386.963
10 0 59465  35742.000000  0    3672348.121  -5631112.593   1496956.318
10 0 59465  35862.000000  0    3595777.051  -5844714.955    603163.618
10 0 59465  35982.000000  0    3453523.426  -5954238.034   -301250.152
10 0 59465  36102.000000  0    3249949.129  -5956704.842  -1200365.856
10 0 59465  36222.000000  0    2990530.115  -5851114.900  -2078376.437
10 0 59465  36342.000000  0    2681721.231  -5638474.804  -2919871.638
10 0 59465  36462.000000  0    2330802.893  -5321788.350  -3710114.692
10 0 59465  36582.000000  0    1945712.750  -4906005.927  -4435302.938
10 0 59465  36702.000000  0    1534867.699  -4397936.026  -5082805.832
10 0 59465  36822.000000  0    1106982.606  -3806123.076  -5641378.309
10 0 59465  36942.000000  0     670888.134  -3140694.472  -6101347.130
10 0 59465  37062.000000  0     235351.137  -2413180.470  -6454767.289
10 0 59465  37182.000000  0    -191098.084  -1636310.666  -6695547.859
10 0 59465  37302.000000  0    -600328.358   -823790.892  -6819546.723
10 0 59465  37422.000000  0    -984757.775      9936.059  -6824634.189
10 0 59465  37542.000000  0   -1337490.431    849941.760  -6710724.458
10 0 59465  37662.000000  0   -1652437.224   1681072.345  -6479776.644
10 0 59465  37782.000000  0   -1924418.461   2488214.923  -6135764.507
10 0 59465  37902.000000  0   -2149248.607   3256566.865  -5684616.926
10 0 59465  38022.000000  0   -2323801.013   3971905.098  -5134125.831
10 0 59465  38142.000000  0   -2446051.897   4620850.443  -4493823.603
10 0 59465  38262.000000  0   -2515102.664   5191122.714  -3774828.202
10 0 59465  38382.000000  0   -2531178.743   5671779.261  -2989658.159
10 0 59465  38502.000000  0   -2495605.106   6053433.421  -2152022.220
10 0 59465  38622.000000  0   -2410759.319   6328449.205  -1276583.078
10 0 59465  38742.000000  0   -2280002.083   6491102.714   -378699.201
10 0 59465  38862.000000  0   -2107587.565   6537709.671    525846.862
10 0 59465  38982.000000  0   -1898554.677   6466715.688   1421134.827
10 0 59465  39102.000000  0   -1658600.080   6278738.928   2291398.594
10 0 59465  39222.000000  0   -1393938.104   5976568.141   3121312.271
10 0 59465  39342.000000  0   -1111152.121   5565118.202   3896266.247
10 0 59465  39462.000000  0    -817041.220   5051344.721   4602629.305
99
